{
  "norad_id": 66943,
  "name": "STARLINK-36109",
  "history": [
    {
      "epoch": "2026-03-28T18:42:03.255840Z",
      "apogee_km": 476.021589567662,
      "perigee_km": 474.37802233485945,
      "latitude_deg": 7.995733067977002e-05,
      "longitude_deg": 162.7753388438442,
      "height_km": 476.1293474489397,
      "semi_major_axis_km": 6853.33680595126,
      "eccentricity": 0.00011991,
      "inclination_deg": 53.1578,
      "raan_deg": 269.4836,
      "arg_perigee_deg": 92.2048,
      "mean_anomaly_deg": 267.9091,
      "mean_motion_rev_day": 15.30205112
    }
  ]
}